{
  "type": "FeatureCollection",
  "features": [
    {
      "type": "Feature",
      "properties": {
        "norad_id": 31307,
        "name": "GALAXY 17 (G-17)",
        "group": "intelsat",
        "lat": -1.3919872215893268,
        "lon": -64.82087829674543,
        "alt_km": 35769.40514800463,
        "timestamp": "2025-12-18T19:29:52.210527+00:00",
        "meta_object_name": "GALAXY 17 (G-17)",
        "meta_object_id": "2007-016B",
        "meta_epoch": "2025-12-18T06:01:21.974592",
        "meta_mean_motion": 1.00272118,
        "meta_eccentricity": 0.00054848,
        "meta_inclination": 2.5134,
        "meta_ra_of_asc_node": 82.2243,
        "meta_arg_of_pericenter": 169.1447,
        "meta_mean_anomaly": 201.1185,
        "meta_ephemeris_type": 0,
        "meta_classification_type": "U",
        "meta_norad_cat_id": 31307,
        "meta_element_set_no": 999,
        "meta_rev_at_epoch": 6799,
        "meta_bstar": 0,
        "meta_mean_motion_dot": -1.83e-06,
        "meta_mean_motion_ddot": 0,
        "tle_line1": "1 31307U 07016B   25352.25094878 -.00000183  00000+0  00000+0 0  9999",
        "tle_line2": "2 31307   2.5134  82.2243 0005484 169.1447 201.1185  1.00272118 67996"
      },
      "geometry": {
        "type": "Point",
        "coordinates": [
          -64.82087829674543,
          -1.3919872215893268
        ]
      }
    },
    {
      "type": "Feature",
      "properties": {
        "norad_id": 31862,
        "name": "DIRECTV 10",
        "group": "intelsat",
        "lat": 0.007493166255690028,
        "lon": -82.6921037968298,
        "alt_km": 35786.62141287193,
        "timestamp": "2025-12-18T19:29:52.210539+00:00",
        "meta_object_name": "DIRECTV 10",
        "meta_object_id": "2007-032A",
        "meta_epoch": "2025-12-18T05:58:46.307712",
        "meta_mean_motion": 1.00267583,
        "meta_eccentricity": 2.412e-05,
        "meta_inclination": 0.0055,
        "meta_ra_of_asc_node": 112.5031,
        "meta_arg_of_pericenter": 215.4513,
        "meta_mean_anomaly": 106.0457,
        "meta_ephemeris_type": 0,
        "meta_classification_type": "U",
        "meta_norad_cat_id": 31862,
        "meta_element_set_no": 999,
        "meta_rev_at_epoch": 4377,
        "meta_bstar": 0,
        "meta_mean_motion_dot": -7.7e-07,
        "meta_mean_motion_ddot": 0,
        "tle_line1": "1 31862U 07032A   25352.24914708 -.00000077  00000+0  00000+0 0  9997",
        "tle_line2": "2 31862   0.0055 112.5031 0000241 215.4513 106.0457  1.00267583 43779"
      },
      "geometry": {
        "type": "Point",
        "coordinates": [
          -82.6921037968298,
          0.007493166255690028
        ]
      }
    },
    {
      "type": "Feature",
      "properties": {
        "norad_id": 32253,
        "name": "INTELSAT 11 (IS-11)",
        "group": "intelsat",
        "lat": 2.0456314020747106,
        "lon": -140.91106356305318,
        "alt_km": 36099.69709619526,
        "timestamp": "2025-12-18T19:29:52.210550+00:00",
        "meta_object_name": "INTELSAT 11 (IS-11)",
        "meta_object_id": "2007-044B",
        "meta_epoch": "2025-12-18T05:28:48.347040",
        "meta_mean_motion": 0.99051407,
        "meta_eccentricity": 0.00085749,
        "meta_inclination": 3.0938,
        "meta_ra_of_asc_node": 80.9164,
        "meta_arg_of_pericenter": 168.0916,
        "meta_mean_anomaly": 121.8188,
        "meta_ephemeris_type": 0,
        "meta_classification_type": "U",
        "meta_norad_cat_id": 32253,
        "meta_element_set_no": 999,
        "meta_rev_at_epoch": 6665,
        "meta_bstar": 0,
        "meta_mean_motion_dot": 0,
        "meta_mean_motion_ddot": 0,
        "tle_line1": "1 32253U 07044B   25352.22833735  .00000000  00000+0  00000+0 0  9998",
        "tle_line2": "2 32253   3.0938  80.9164 0008574 168.0916 121.8188  0.99051407 66650"
      },
      "geometry": {
        "type": "Point",
        "coordinates": [
          -140.91106356305318,
          2.0456314020747106
        ]
      }
    },
    {
      "type": "Feature",
      "properties": {
        "norad_id": 32388,
        "name": "HORIZONS-2",
        "group": "intelsat",
        "lat": -1.4894764404716676,
        "lon": -53.64654226757374,
        "alt_km": 35769.631245333294,
        "timestamp": "2025-12-18T19:29:52.210562+00:00",
        "meta_object_name": "HORIZONS-2",
        "meta_object_id": "2007-063B",
        "meta_epoch": "2025-12-18T06:15:12.515328",
        "meta_mean_motion": 1.00272593,
        "meta_eccentricity": 0.00045652,
        "meta_inclination": 2.1352,
        "meta_ra_of_asc_node": 82.9044,
        "meta_arg_of_pericenter": 191.9486,
        "meta_mean_anomaly": 192.2893,
        "meta_ephemeris_type": 0,
        "meta_classification_type": "U",
        "meta_norad_cat_id": 32388,
        "meta_element_set_no": 999,
        "meta_rev_at_epoch": 6600,
        "meta_bstar": 0,
        "meta_mean_motion_dot": -2.3e-06,
        "meta_mean_motion_ddot": 0,
        "tle_line1": "1 32388U 07063B   25352.26056152 -.00000230  00000+0  00000+0 0  9998",
        "tle_line2": "2 32388   2.1352  82.9044 0004565 191.9486 192.2893  1.00272593 66009"
      },
      "geometry": {
        "type": "Point",
        "coordinates": [
          -53.64654226757374,
          -1.4894764404716676
        ]
      }
    },
    {
      "type": "Feature",
      "properties": {
        "norad_id": 32729,
        "name": "DIRECTV 11",
        "group": "intelsat",
        "lat": -0.006803868979495223,
        "lon": -79.0902466855434,
        "alt_km": 35788.41840337094,
        "timestamp": "2025-12-18T19:29:52.210574+00:00",
        "meta_object_name": "DIRECTV 11",
        "meta_object_id": "2008-013A",
        "meta_epoch": "2025-12-17T21:24:49.087584",
        "meta_mean_motion": 1.00260701,
        "meta_eccentricity": 0.00010186,
        "meta_inclination": 0.0306,
        "meta_ra_of_asc_node": 208.7035,
        "meta_arg_of_pericenter": 352.6085,
        "meta_mean_anomaly": 107.4644,
        "meta_ephemeris_type": 0,
        "meta_classification_type": "U",
        "meta_norad_cat_id": 32729,
        "meta_element_set_no": 999,
        "meta_rev_at_epoch": 4377,
        "meta_bstar": 0,
        "meta_mean_motion_dot": -9.9e-07,
        "meta_mean_motion_ddot": 0,
        "tle_line1": "1 32729U 08013A   25351.89223481 -.00000099  00000+0  00000+0 0  9995",
        "tle_line2": "2 32729   0.0306 208.7035 0001018 352.6085 107.4644  1.00260701 43772"
      },
      "geometry": {
        "type": "Point",
        "coordinates": [
          -79.0902466855434,
          -0.006803868979495223
        ]
      }
    },
    {
      "type": "Feature",
      "properties": {
        "norad_id": 32951,
        "name": "GALAXY 18 (G-18)",
        "group": "intelsat",
        "lat": -0.04061250546092348,
        "lon": -102.87697424889286,
        "alt_km": 35774.10784769059,
        "timestamp": "2025-12-18T19:29:52.210586+00:00",
        "meta_object_name": "GALAXY 18 (G-18)",
        "meta_object_id": "2008-024A",
        "meta_epoch": "2025-12-17T23:00:47.396160",
        "meta_mean_motion": 1.00273043,
        "meta_eccentricity": 0.0002845,
        "meta_inclination": 0.0179,
        "meta_ra_of_asc_node": 16.0892,
        "meta_arg_of_pericenter": 257.3586,
        "meta_mean_anomaly": 35.5801,
        "meta_ephemeris_type": 0,
        "meta_classification_type": "U",
        "meta_norad_cat_id": 32951,
        "meta_element_set_no": 999,
        "meta_rev_at_epoch": 4403,
        "meta_bstar": 0,
        "meta_mean_motion_dot": 5e-07,
        "meta_mean_motion_ddot": 0,
        "tle_line1": "1 32951U 08024A   25351.95888190  .00000050  00000+0  00000+0 0  9991",
        "tle_line2": "2 32951   0.0179  16.0892 0002845 257.3586  35.5801  1.00273043 44033"
      },
      "geometry": {
        "type": "Point",
        "coordinates": [
          -102.87697424889286,
          -0.04061250546092348
        ]
      }
    },
    {
      "type": "Feature",
      "properties": {
        "norad_id": 33153,
        "name": "INTELSAT 25 (IS-25)",
        "group": "intelsat",
        "lat": -2.2391332412353298,
        "lon": -11.321590446118163,
        "alt_km": 35783.49065813845,
        "timestamp": "2025-12-18T19:29:52.210604+00:00",
        "meta_object_name": "INTELSAT 25 (IS-25)",
        "meta_object_id": "2008-034A",
        "meta_epoch": "2025-12-18T01:09:35.057088",
        "meta_mean_motion": 1.00270798,
        "meta_eccentricity": 0.00048078,
        "meta_inclination": 2.2407,
        "meta_ra_of_asc_node": 82.593,
        "meta_arg_of_pericenter": 185.1841,
        "meta_mean_anomaly": 165.035,
        "meta_ephemeris_type": 0,
        "meta_classification_type": "U",
        "meta_norad_cat_id": 33153,
        "meta_element_set_no": 999,
        "meta_rev_at_epoch": 6387,
        "meta_bstar": 0,
        "meta_mean_motion_dot": -2.01e-06,
        "meta_mean_motion_ddot": 0,
        "tle_line1": "1 33153U 08034A   25352.04832242 -.00000201  00000+0  00000+0 0  9994",
        "tle_line2": "2 33153   2.2407  82.5930 0004807 185.1841 165.0350  1.00270798 63874"
      },
      "geometry": {
        "type": "Point",
        "coordinates": [
          -11.321590446118163,
          -2.2391332412353298
        ]
      }
    }
  ]
}